{
  "type": "FeatureCollection",
  "features": [
    {
      "type": "Feature",
      "properties": {
        "norad_id": 34761,
        "name": "COSMOS 2251 DEB",
        "group": "cosmos-2251-debris",
        "lat": -59.46835388963956,
        "lon": -138.86610837661325,
        "alt_km": 796.6682491349457,
        "timestamp": "2025-12-07T16:44:04.307981+00:00",
        "meta_object_name": "COSMOS 2251 DEB",
        "meta_object_id": "1993-036AAF",
        "meta_epoch": "2025-12-06T19:34:14.659680",
        "meta_mean_motion": 14.38019015,
        "meta_eccentricity": 0.00361673,
        "meta_inclination": 74.0293,
        "meta_ra_of_asc_node": 13.709,
        "meta_arg_of_pericenter": 49.6551,
        "meta_mean_anomaly": 310.7752,
        "meta_ephemeris_type": 0,
        "meta_classification_type": "U",
        "meta_norad_cat_id": 34761,
        "meta_element_set_no": 999,
        "meta_rev_at_epoch": 87564,
        "meta_bstar": 0.0010339167,
        "meta_mean_motion_dot": 3.127e-05,
        "meta_mean_motion_ddot": 0,
        "tle_line1": "1 34761U 93036AAF 25340.81544745  .00003127  00000+0  10339-2 0  9994",
        "tle_line2": "2 34761  74.0293  13.7090 0036167  49.6551 310.7752 14.38019015875648"
      },
      "geometry": {
        "type": "Point",
        "coordinates": [
          -138.86610837661325,
          -59.46835388963956
        ]
      }
    },
    {
      "type": "Feature",
      "properties": {
        "norad_id": 34784,
        "name": "COSMOS 2251 DEB",
        "group": "cosmos-2251-debris",
        "lat": 58.010195253211194,
        "lon": 1.3420251134882548,
        "alt_km": 680.3374689419061,
        "timestamp": "2025-12-07T16:44:04.307991+00:00",
        "meta_object_name": "COSMOS 2251 DEB",
        "meta_object_id": "1993-036AAM",
        "meta_epoch": "2025-12-06T05:56:01.298400",
        "meta_mean_motion": 14.60734634,
        "meta_eccentricity": 0.00496438,
        "meta_inclination": 74.007,
        "meta_ra_of_asc_node": 336.783,
        "meta_arg_of_pericenter": 148.0473,
        "meta_mean_anomaly": 212.3721,
        "meta_ephemeris_type": 0,
        "meta_classification_type": "U",
        "meta_norad_cat_id": 34784,
        "meta_element_set_no": 999,
        "meta_rev_at_epoch": 88440,
        "meta_bstar": 0.00087620671,
        "meta_mean_motion_dot": 4.32e-05,
        "meta_mean_motion_ddot": 0,
        "tle_line1": "1 34784U 93036AAM 25340.24723725  .00004320  00000+0  87621-3 0  9998",
        "tle_line2": "2 34784  74.0070 336.7830 0049643 148.0473 212.3721 14.60734634884409"
      },
      "geometry": {
        "type": "Point",
        "coordinates": [
          1.3420251134882548,
          58.010195253211194
        ]
      }
    },
    {
      "type": "Feature",
      "properties": {
        "norad_id": 34790,
        "name": "COSMOS 2251 DEB",
        "group": "cosmos-2251-debris",
        "lat": 52.37325399260549,
        "lon": 51.01502754244289,
        "alt_km": 875.6215273060661,
        "timestamp": "2025-12-07T16:44:04.308002+00:00",
        "meta_object_name": "COSMOS 2251 DEB",
        "meta_object_id": "1993-036AAT",
        "meta_epoch": "2025-12-06T20:15:35.664192",
        "meta_mean_motion": 14.24599885,
        "meta_eccentricity": 0.01007033,
        "meta_inclination": 74.0549,
        "meta_ra_of_asc_node": 254.3201,
        "meta_arg_of_pericenter": 317.1761,
        "meta_mean_anomaly": 113.5959,
        "meta_ephemeris_type": 0,
        "meta_classification_type": "U",
        "meta_norad_cat_id": 34790,
        "meta_element_set_no": 999,
        "meta_rev_at_epoch": 86489,
        "meta_bstar": 0.0013825473,
        "meta_mean_motion_dot": 3.36e-05,
        "meta_mean_motion_ddot": 0,
        "tle_line1": "1 34790U 93036AAT 25340.84416278  .00003360  00000+0  13825-2 0  9990",
        "tle_line2": "2 34790  74.0549 254.3201 0100703 317.1761 113.5959 14.24599885864891"
      },
      "geometry": {
        "type": "Point",
        "coordinates": [
          51.01502754244289,
          52.37325399260549
        ]
      }
    },
    {
      "type": "Feature",
      "properties": {
        "norad_id": 34792,
        "name": "COSMOS 2251 DEB",
        "group": "cosmos-2251-debris",
        "lat": -42.594890035727815,
        "lon": 14.557370640216249,
        "alt_km": 706.8024276919296,
        "timestamp": "2025-12-07T16:44:04.308013+00:00",
        "meta_object_name": "COSMOS 2251 DEB",
        "meta_object_id": "1993-036AAV",
        "meta_epoch": "2025-12-06T20:00:02.545920",
        "meta_mean_motion": 14.55883489,
        "meta_eccentricity": 0.00125445,
        "meta_inclination": 74.017,
        "meta_ra_of_asc_node": 180.918,
        "meta_arg_of_pericenter": 274.6891,
        "meta_mean_anomaly": 104.0123,
        "meta_ephemeris_type": 0,
        "meta_classification_type": "U",
        "meta_norad_cat_id": 34792,
        "meta_element_set_no": 999,
        "meta_rev_at_epoch": 87564,
        "meta_bstar": 0.001553243,
        "meta_mean_motion_dot": 6.803e-05,
        "meta_mean_motion_ddot": 0,
        "tle_line1": "1 34792U 93036AAV 25340.83336280  .00006803  00000+0  15532-2 0  9997",
        "tle_line2": "2 34792  74.0170 180.9180 0012544 274.6891 104.0123 14.55883489875642"
      },
      "geometry": {
        "type": "Point",
        "coordinates": [
          14.557370640216249,
          -42.594890035727815
        ]
      }
    },
    {
      "type": "Feature",
      "properties": {
        "norad_id": 34793,
        "name": "COSMOS 2251 DEB",
        "group": "cosmos-2251-debris",
        "lat": -41.75097810676289,
        "lon": -115.15344159638876,
        "alt_km": 774.6160918574597,
        "timestamp": "2025-12-07T16:44:04.308023+00:00",
        "meta_object_name": "COSMOS 2251 DEB",
        "meta_object_id": "1993-036AAW",
        "meta_epoch": "2025-12-06T21:13:48.430848",
        "meta_mean_motion": 14.38629494,
        "meta_eccentricity": 0.00500559,
        "meta_inclination": 74.0029,
        "meta_ra_of_asc_node": 261.1835,
        "meta_arg_of_pericenter": 56.845,
        "meta_mean_anomaly": 12.7084,
        "meta_ephemeris_type": 0,
        "meta_classification_type": "U",
        "meta_norad_cat_id": 34793,
        "meta_element_set_no": 999,
        "meta_rev_at_epoch": 87246,
        "meta_bstar": 0.00050578117,
        "meta_mean_motion_dot": 1.546e-05,
        "meta_mean_motion_ddot": 0,
        "tle_line1": "1 34793U 93036AAW 25340.88458832  .00001546  00000+0  50578-3 0  9990",
        "tle_line2": "2 34793  74.0029 261.1835 0050055  56.8450  12.7084 14.38629494872468"
      },
      "geometry": {
        "type": "Point",
        "coordinates": [
          -115.15344159638876,
          -41.75097810676289
        ]
      }
    },
    {
      "type": "Feature",
      "properties": {
        "norad_id": 34796,
        "name": "COSMOS 2251 DEB",
        "group": "cosmos-2251-debris",
        "lat": -45.532248903351444,
        "lon": 62.760646061590165,
        "alt_km": 749.366076534583,
        "timestamp": "2025-12-07T16:44:04.308035+00:00",
        "meta_object_name": "COSMOS 2251 DEB",
        "meta_object_id": "1993-036AAZ",
        "meta_epoch": "2025-12-04T16:32:19.644000",
        "meta_mean_motion": 14.48622795,
        "meta_eccentricity": 0.0100109,
        "meta_inclination": 74.0308,
        "meta_ra_of_asc_node": 231.4366,
        "meta_arg_of_pericenter": 335.2768,
        "meta_mean_anomaly": 52.2124,
        "meta_ephemeris_type": 0,
        "meta_classification_type": "U",
        "meta_norad_cat_id": 34796,
        "meta_element_set_no": 999,
        "meta_rev_at_epoch": 87911,
        "meta_bstar": 0.0015827,
        "meta_mean_motion_dot": 6.321e-05,
        "meta_mean_motion_ddot": 0,
        "tle_line1": "1 34796U 93036AAZ 25338.68911625  .00006321  00000+0  15827-2 0  9995",
        "tle_line2": "2 34796  74.0308 231.4366 0100109 335.2768  52.2124 14.48622795879113"
      },
      "geometry": {
        "type": "Point",
        "coordinates": [
          62.760646061590165,
          -45.532248903351444
        ]
      }
    },
    {
      "type": "Feature",
      "properties": {
        "norad_id": 34797,
        "name": "COSMOS 2251 DEB",
        "group": "cosmos-2251-debris",
        "lat": 71.81774290584907,
        "lon": -131.65877708015395,
        "alt_km": 771.7981184016226,
        "timestamp": "2025-12-07T16:44:04.308045+00:00",
        "meta_object_name": "COSMOS 2251 DEB",
        "meta_object_id": "1993-036ABA",
        "meta_epoch": "2025-12-06T15:18:32.741280",
        "meta_mean_motion": 14.42649949,
        "meta_eccentricity": 0.00724054,
        "meta_inclination": 73.9773,
        "meta_ra_of_asc_node": 111.3499,
        "meta_arg_of_pericenter": 225.9765,
        "meta_mean_anomaly": 133.5412,
        "meta_ephemeris_type": 0,
        "meta_classification_type": "U",
        "meta_norad_cat_id": 34797,
        "meta_element_set_no": 999,
        "meta_rev_at_epoch": 87327,
        "meta_bstar": 0.0039721456,
        "meta_mean_motion_dot": 0.00013628,
        "meta_mean_motion_ddot": 0,
        "tle_line1": "1 34797U 93036ABA 25340.63787895  .00013628  00000+0  39721-2 0  9991",
        "tle_line2": "2 34797  73.9773 111.3499 0072405 225.9765 133.5412 14.42649949873278"
      },
      "geometry": {
        "type": "Point",
        "coordinates": [
          -131.65877708015395,
          71.81774290584907
        ]
      }
    }
  ]
}